[{"OBJECT_NAME":"RANGE-A","OBJECT_ID":"2018-099R","EPOCH":"2026-03-09T16:56:29.908608","MEAN_MOTION":15.1245864,"ECCENTRICITY":0.00096737,"INCLINATION":97.4107,"RA_OF_ASC_NODE":114.1927,"ARG_OF_PERICENTER":340.4473,"MEAN_ANOMALY":19.6386,"EPHEMERIS_TYPE":0,"CLASSIFICATION_TYPE":"U","NORAD_CAT_ID":43773,"ELEMENT_SET_NO":999,"REV_AT_EPOCH":39745,"BSTAR":0.00032165687,"MEAN_MOTION_DOT":5.536e-5,"MEAN_MOTION_DDOT":0},{"OBJECT_NAME":"STARLINK-6079","OBJECT_ID":"2023-046AD","EPOCH":"2026-03-09T22:00:01.999584","MEAN_MOTION":15.12009533,"ECCENTRICITY":0.00021275,"INCLINATION":42.9999,"RA_OF_ASC_NODE":144.8653,"ARG_OF_PERICENTER":279.9267,"MEAN_ANOMALY":119.034,"EPHEMERIS_TYPE":0,"CLASSIFICATION_TYPE":"U","NORAD_CAT_ID":56120,"ELEMENT_SET_NO":999,"REV_AT_EPOCH":572,"BSTAR":0.00036558396,"MEAN_MOTION_DOT":6.172e-5,"MEAN_MOTION_DDOT":0}]
